*******************************************************************************
JPL/HORIZONS               914 Palisana (A919 NC)          2023-Sep-04 11:09:07
Rec #:     914 (+COV) Soln.date: 2023-Aug-25_00:31:31   # obs: 3567 (1931-2023)
 
IAU76/J2000 helio. ecliptic osc. elements (au, days, deg., period=Julian yrs):
 
  EPOCH=  2457185.5 ! 2015-Jun-12.00 (TDB)         Residual RMS= .22096
   EC= .2146587727227502   QR= 1.930125683895802   TP= 2457322.2388453614
   OM= 255.8061764161672   W=  49.1649659613399    IN= 25.20571252308132
   A= 2.457690513189381    MA= 325.0211769376106   ADIST= 2.985255342482959
   PER= 3.853              N= .255807506           ANGMOM= .026339127
   DAN= 2.05588            DDN= 2.72725            L= 302.1189716
   B= 18.7966833           MOID= .97755301         TP= 2015-Oct-26.7388453614
 
Asteroid physical parameters (km, seconds, rotational period in hours):
   GM= n.a.                RAD= 38.095             ROTPER= 8.68113
   H= 9.14                 G= .150                 B-V= .741
                           ALBEDO= .095            STYP= CU

ASTEROID comments: 
1: soln ref.= JPL#69, OCC=0
2: source=ORB
*******************************************************************************


*******************************************************************************
Ephemeris / API_USER Mon Sep  4 11:09:07 2023 Pasadena, USA      / Horizons
*******************************************************************************
Target body name: 914 Palisana (A919 NC)          {source: JPL#69}
Center body name: Solar System Barycenter (0)     {source: DE441}
Center-site name: BODY CENTER
*******************************************************************************
Start time      : A.D. 2023-Aug-12 00:00:00.0000 TDB
Stop  time      : A.D. 2023-Aug-13 00:00:00.0000 TDB
Step-size       : 2880 minutes
*******************************************************************************
Center geodetic : 0.0, 0.0, 0.0                   {E-lon(deg),Lat(deg),Alt(km)}
Center cylindric: 0.0, 0.0, 0.0                   {E-lon(deg),Dxy(km),Dz(km)}
Center radii    : (undefined)
Small perturbers: Yes                             {source: SB441-N16}
Output units    : KM-S
Calendar mode   : Mixed Julian/Gregorian
Output type     : GEOMETRIC cartesian states
Output format   : 2 (position and velocity)
Reference frame : Ecliptic of J2000.0
*******************************************************************************
Initial IAU76/J2000 heliocentric ecliptic osculating elements (au, days, deg.):
  EPOCH=  2457185.5 ! 2015-Jun-12.00 (TDB)         Residual RMS= .22096        
   EC= .2146587727227502   QR= 1.930125683895802   TP= 2457322.2388453614      
   OM= 255.8061764161672   W=  49.1649659613399    IN= 25.20571252308132       
  Equivalent ICRF heliocentric cartesian coordinates (au, au/d):
   X=-6.200137580759008E-01  Y=-1.794038582871643E+00  Z=-8.372299482082328E-01
  VX= 1.149652816903924E-02 VY=-3.763759391291497E-03 VZ= 4.305070781862288E-03
Asteroid physical parameters (km, seconds, rotational period in hours):        
   GM= n.a.                RAD= 38.095             ROTPER= 8.68113             
   H= 9.14                 G= .150                 B-V= .741                   
                           ALBEDO= .095            STYP= CU                    
*******************************************************************************
JDTDB
   X     Y     Z
   VX    VY    VZ
*******************************************************************************
$$SOE
2460168.500000000 = A.D. 2023-Aug-12 00:00:00.0000 TDB 
 X = 1.894106853575293E+08 Y =-1.898996118436818E+08 Z = 1.089794232638839E+08
 VX= 1.543720427684728E+01 VY= 1.701442439503285E+01 VZ= 5.070153345055909E+00
$$EOE
*******************************************************************************
 
TIME

  Barycentric Dynamical Time ("TDB" or T_eph) output was requested. This
continuous coordinate time is equivalent to the relativistic proper time
of a clock at rest in a reference frame co-moving with the solar system
barycenter but outside the system's gravity well. It is the independent
variable in the solar system relativistic equations of motion.

  TDB runs at a uniform rate of one SI second per second and is independent
of irregularities in Earth's rotation.
 
CALENDAR SYSTEM

  Mixed calendar mode was active such that calendar dates after AD 1582-Oct-15
(if any) are in the modern Gregorian system. Dates prior to 1582-Oct-5 (if any)
are in the Julian calendar system, which is automatically extended for dates
prior to its adoption on 45-Jan-1 BC.  The Julian calendar is useful for
matching historical dates. The Gregorian calendar more accurately corresponds
to the Earth's orbital motion and seasons. A "Gregorian-only" calendar mode is
available if such physical events are the primary interest.

REFERENCE FRAME AND COORDINATES

  Ecliptic at the standard reference epoch

    Reference epoch: J2000.0
    X-Y plane: adopted Earth orbital plane at the reference epoch
               Note: IAU76 obliquity of 84381.448 arcseconds wrt ICRF X-Y plane
    X-axis   : ICRF
    Z-axis   : perpendicular to the X-Y plane in the directional (+ or -) sense
               of Earth's north pole at the reference epoch.

  Symbol meaning:

    JDTDB    Julian Day Number, Barycentric Dynamical Time
      X      X-component of position vector (km)
      Y      Y-component of position vector (km)
      Z      Z-component of position vector (km)
      VX     X-component of velocity vector (km/sec)                           
      VY     Y-component of velocity vector (km/sec)                           
      VZ     Z-component of velocity vector (km/sec)                           

ABERRATIONS AND CORRECTIONS

 Geometric state vectors have NO corrections or aberrations applied.

Computations by ...

    Solar System Dynamics Group, Horizons On-Line Ephemeris System
    4800 Oak Grove Drive, Jet Propulsion Laboratory
    Pasadena, CA  91109   USA

    General site: https://ssd.jpl.nasa.gov/
    Mailing list: https://ssd.jpl.nasa.gov/email_list.html
    System news : https://ssd.jpl.nasa.gov/horizons/news.html
    User Guide  : https://ssd.jpl.nasa.gov/horizons/manual.html
    Connect     : browser        https://ssd.jpl.nasa.gov/horizons/app.html#/x
                  API            https://ssd-api.jpl.nasa.gov/doc/horizons.html
                  command-line   telnet ssd.jpl.nasa.gov 6775
                  e-mail/batch   https://ssd.jpl.nasa.gov/ftp/ssd/hrzn_batch.txt
                  scripts        https://ssd.jpl.nasa.gov/ftp/ssd/SCRIPTS
    Author      : Jon.D.Giorgini@jpl.nasa.gov
*******************************************************************************
